OBJECT_NAME,OBJECT_ID,EPOCH,MEAN_MOTION,ECCENTRICITY,INCLINATION,RA_OF_ASC_NODE,ARG_OF_PERICENTER,MEAN_ANOMALY,EPHEMERIS_TYPE,CLASSIFICATION_TYPE,NORAD_CAT_ID,ELEMENT_SET_NO,REV_AT_EPOCH,BSTAR,MEAN_MOTION_DOT,MEAN_MOTION_DDOT
IRIDIUM 106,2017-003A,2026-07-12T01:44:34.137312,14.34216912,.00021344,86.3945,78.1512,94.9370,265.2069,0,U,41917,999,49677,-.20618988E-4,-.38E-6,0
IRIDIUM 103,2017-003B,2026-07-12T01:26:18.246624,14.34217298,.00018764,86.3942,78.0561,82.9318,277.2091,0,U,41918,999,49679,-.7151981E-5,0,0
IRIDIUM 109,2017-003C,2026-07-12T14:59:10.124736,14.34216933,.00020698,86.3944,77.8799,83.7646,276.3786,0,U,41919,999,49684,-.21420157E-4,-.4E-6,0
IRIDIUM 102,2017-003D,2026-07-12T02:30:14.353920,14.34217608,.00021493,86.3943,78.0204,84.4955,275.6486,0,U,41920,999,49685,.46527968E-4,.15E-5,0
IRIDIUM 105,2017-003E,2026-07-12T13:13:52.884192,14.34217352,.00021841,86.3943,46.2616,79.7435,280.4007,0,U,41921,999,49877,.4689508E-4,.151E-5,0
IRIDIUM 104,2017-003F,2026-07-12T14:31:46.230816,14.34217664,.00020527,86.3946,77.8541,78.4007,281.7419,0,U,41922,999,49691,.41958535E-4,.137E-5,0
IRIDIUM 114,2017-003G,2026-07-12T02:57:38.177856,14.34217335,.00019562,86.3943,78.0383,81.1027,279.0391,0,U,41923,999,49682,-.964507E-5,-.7E-7,0
IRIDIUM 108,2017-003H,2026-07-12T13:41:10.481280,14.34217703,.00022571,86.3939,46.1423,85.2494,274.8959,0,U,41924,999,49874,.46486143E-4,.15E-5,0
IRIDIUM 112,2017-003J,2026-07-10T15:29:33.620928,14.34219864,.00021565,86.3941,78.4973,81.8094,278.3346,0,U,41925,999,49663,.36640037E-4,.122E-5,0
IRIDIUM 111,2017-003K,2026-07-12T14:04:22.265184,14.34217892,.00021652,86.3943,77.7570,84.7871,275.3572,0,U,41926,999,49689,.42890599E-4,.14E-5,0
IRIDIUM 113,2017-039A,2026-07-12T10:14:35.081952,14.34216999,.00020432,86.3989,311.6294,90.8641,269.2789,0,U,42803,999,47480,-.16056469E-4,-.25E-6,0
IRIDIUM 123,2017-039B,2026-07-12T11:14:18.794976,14.34217094,.00020338,86.3985,343.0685,96.1552,263.9876,0,U,42804,999,47357,-.15098355E-4,-.23E-6,0
IRIDIUM 120,2017-039C,2026-07-12T06:44:31.329024,14.34216625,.0002227,86.3977,311.4699,98.0173,262.1275,0,U,42805,999,47477,-.19145E-4,-.34E-6,0
IRIDIUM 115,2017-039D,2026-07-12T00:12:01.487520,14.43276520,.00021682,86.4515,311.7155,98.3820,261.7626,0,U,42806,999,47784,.48349531E-4,.183E-5,0
IRIDIUM 118,2017-039E,2026-07-12T11:59:58.927776,14.34217676,.00021811,86.3985,343.0530,90.9877,269.1569,0,U,42807,999,47357,.9323128E-5,.46E-6,0
IRIDIUM 117,2017-039F,2026-07-12T10:46:54.790464,14.34217325,.00021874,86.3988,343.0315,94.9699,265.1746,0,U,42808,999,47359,.40116751E-4,.132E-5,0
IRIDIUM 126,2017-039G,2026-07-12T11:23:26.912256,14.34217944,.00020603,86.3988,343.0728,90.4029,269.7402,0,U,42809,999,47357,.27657683E-4,.97E-6,0
IRIDIUM 124,2017-039H,2026-07-12T05:16:01.672320,14.43285178,.00022951,86.4484,279.8929,95.8099,264.3363,0,U,42810,999,47872,.49136555E-4,.185E-5,0
IRIDIUM 128,2017-039J,2026-07-12T12:50:34.798272,14.34216579,.00022681,86.3962,14.5490,94.7630,265.3825,0,U,42811,999,47361,.1729092E-5,.25E-6,0
IRIDIUM 121,2017-039K,2026-07-12T11:50:50.945280,14.34217170,.00021068,86.3985,343.0929,92.6138,267.5299,0,U,42812,999,47345,-.19419345E-4,-.35E-6,0
IRIDIUM 133,2017-061A,2026-07-12T13:36:14.696928,14.34216968,.00021974,86.3966,14.6544,91.0076,269.1371,0,U,42955,999,45841,.11951294E-4,.53E-6,0
IRIDIUM 100,2017-061B,2026-07-12T13:27:06.837984,14.34217014,.00022233,86.3963,14.5750,90.0107,270.1343,0,U,42956,999,45841,.5505511E-5,.35E-6,0
IRIDIUM 122,2017-061C,2026-07-12T14:21:54.433152,14.34216944,.00021447,86.3965,14.5595,91.3777,268.7664,0,U,42957,999,45842,.2940842E-5,.28E-6,0
IRIDIUM 129,2017-061D,2026-07-12T13:17:58.530624,14.34216817,.00021761,86.3964,14.6453,83.3956,276.7488,0,U,42958,999,45843,.2792264E-5,.28E-6,0
IRIDIUM 119,2017-061E,2026-07-12T14:12:46.747872,14.34216504,.00021067,86.3962,14.6250,89.7125,270.4312,0,U,42959,999,45845,.4070594E-5,.31E-6,0
IRIDIUM 107,2017-061F,2026-07-12T12:59:42.576000,14.34216862,.0001961,86.3960,14.6680,94.7450,265.3970,0,U,42960,999,45845,-.6951301E-5,0,0
IRIDIUM 132,2017-061G,2026-07-12T13:08:50.645760,14.34216461,.00021894,86.3964,14.6446,90.1924,269.9523,0,U,42961,999,45845,.599516E-5,.37E-6,0
IRIDIUM 136,2017-061H,2026-07-12T13:54:30.822624,14.34216981,.00022518,86.3965,14.6379,90.3915,269.7539,0,U,42962,999,45847,.3630762E-5,.3E-6,0
IRIDIUM 139,2017-061J,2026-07-12T14:03:38.851776,14.34216837,.00021254,86.3963,14.6977,92.1507,267.9932,0,U,42963,999,45848,-.4408539E-5,.7E-7,0
IRIDIUM 125,2017-061K,2026-07-12T13:45:22.873824,14.34217261,.00016643,86.3968,14.7646,89.7948,270.3438,0,U,42964,999,45849,.4930518E-5,.34E-6,0
