IRIDIUM 106             
1 41917U 17003A   26193.07261733 -.00000038  00000+0 -20619-4 0  9997
2 41917  86.3945  78.1512 0002134  94.9370 265.2069 14.34216912496771
IRIDIUM 103             
1 41918U 17003B   26193.05993341  .00000000  00000+0 -71520-5 0  9999
2 41918  86.3942  78.0561 0001876  82.9318 277.2091 14.34217298496791
IRIDIUM 109             
1 41919U 17003C   26193.62442274 -.00000040  00000+0 -21420-4 0  9995
2 41919  86.3944  77.8799 0002069  83.7646 276.3786 14.34216933496844
IRIDIUM 102             
1 41920U 17003D   26193.10433280  .00000150  00000+0  46528-4 0  9993
2 41920  86.3943  78.0204 0002149  84.4955 275.6486 14.34217608496859
IRIDIUM 105             
1 41921U 17003E   26193.55130653  .00000151  00000+0  46895-4 0  9999
2 41921  86.3943  46.2616 0002184  79.7435 280.4007 14.34217352498775
IRIDIUM 104             
1 41922U 17003F   26193.60539619  .00000137  00000+0  41959-4 0  9991
2 41922  86.3946  77.8541 0002052  78.4007 281.7419 14.34217664496912
IRIDIUM 114             
1 41923U 17003G   26193.12335854 -.00000007  00000+0 -96451-5 0  9990
2 41923  86.3943  78.0383 0001956  81.1027 279.0391 14.34217335496826
IRIDIUM 108             
1 41924U 17003H   26193.57026020  .00000150  00000+0  46486-4 0  9991
2 41924  86.3939  46.1423 0002257  85.2494 274.8959 14.34217703498746
IRIDIUM 112             
1 41925U 17003J   26191.64552802  .00000122  00000+0  36640-4 0  9990
2 41925  86.3941  78.4973 0002156  81.8094 278.3346 14.34219864496639
IRIDIUM 111             
1 41926U 17003K   26193.58636881  .00000140  00000+0  42891-4 0  9991
2 41926  86.3943  77.7570 0002165  84.7871 275.3572 14.34217892496897
IRIDIUM 113             
1 42803U 17039A   26193.42679493 -.00000025  00000+0 -16056-4 0  9992
2 42803  86.3989 311.6294 0002043  90.8641 269.2789 14.34216999474809
IRIDIUM 123             
1 42804U 17039B   26193.46827309 -.00000023  00000+0 -15098-4 0  9991
2 42804  86.3985 343.0685 0002033  96.1552 263.9876 14.34217094473576
IRIDIUM 120             
1 42805U 17039C   26193.28091816 -.00000034  00000+0 -19145-4 0  9997
2 42805  86.3977 311.4699 0002227  98.0173 262.1275 14.34216625474773
IRIDIUM 115             
1 42806U 17039D   26193.00835055  .00000183  00000+0  48350-4 0  9992
2 42806  86.4515 311.7155 0002168  98.3820 261.7626 14.43276520477845
IRIDIUM 118             
1 42807U 17039E   26193.49998759  .00000046  00000+0  93231-5 0  9994
2 42807  86.3985 343.0530 0002181  90.9877 269.1569 14.34217676473577
IRIDIUM 117             
1 42808U 17039F   26193.44924526  .00000132  00000+0  40117-4 0  9991
2 42808  86.3988 343.0315 0002187  94.9699 265.1746 14.34217325473590
IRIDIUM 126             
1 42809U 17039G   26193.47461704  .00000097  00000+0  27658-4 0  9994
2 42809  86.3988 343.0728 0002060  90.4029 269.7402 14.34217944473571
IRIDIUM 124             
1 42810U 17039H   26193.21946380  .00000185  00000+0  49137-4 0  9990
2 42810  86.4484 279.8929 0002295  95.8099 264.3363 14.43285178478723
IRIDIUM 128             
1 42811U 17039J   26193.53512498  .00000025  00000+0  17291-5 0  9995
2 42811  86.3962  14.5490 0002268  94.7630 265.3825 14.34216579473616
IRIDIUM 121             
1 42812U 17039K   26193.49364520 -.00000035  00000+0 -19419-4 0  9998
2 42812  86.3985 343.0929 0002106  92.6138 267.5299 14.34217170473459
IRIDIUM 133             
1 42955U 17061A   26193.56683677  .00000053  00000+0  11951-4 0  9997
2 42955  86.3966  14.6544 0002197  91.0076 269.1371 14.34216968458416
IRIDIUM 100             
1 42956U 17061B   26193.56049581  .00000035  00000+0  55055-5 0  9992
2 42956  86.3963  14.5750 0002223  90.0107 270.1343 14.34217014458410
IRIDIUM 122             
1 42957U 17061C   26193.59854668  .00000028  00000+0  29408-5 0  9991
2 42957  86.3965  14.5595 0002144  91.3777 268.7664 14.34216944458420
IRIDIUM 129             
1 42958U 17061D   26193.55414966  .00000028  00000+0  27923-5 0  9991
2 42958  86.3964  14.6453 0002176  83.3956 276.7488 14.34216817458432
IRIDIUM 119             
1 42959U 17061E   26193.59220773  .00000031  00000+0  40706-5 0  9995
2 42959  86.3962  14.6250 0002106  89.7125 270.4312 14.34216504458459
IRIDIUM 107             
1 42960U 17061F   26193.54146500  .00000000  00000+0 -69513-5 0  9991
2 42960  86.3960  14.6680 0001961  94.7450 265.3970 14.34216862458451
IRIDIUM 132             
1 42961U 17061G   26193.54780840  .00000037  00000+0  59952-5 0  9998
2 42961  86.3964  14.6446 0002189  90.1924 269.9523 14.34216461458454
IRIDIUM 136             
1 42962U 17061H   26193.57952341  .00000030  00000+0  36308-5 0  9992
2 42962  86.3965  14.6379 0002251  90.3915 269.7539 14.34216981458477
IRIDIUM 139             
1 42963U 17061J   26193.58586634  .00000007  00000+0 -44085-5 0  9998
2 42963  86.3963  14.6977 0002125  92.1507 267.9932 14.34216837458485
IRIDIUM 125             
1 42964U 17061K   26193.57318141  .00000034  00000+0  49305-5 0  9993
2 42964  86.3968  14.7646 0001664  89.7948 270.3438 14.34217261458495
